STARLINK-1984
1 27581C 21009AK  21325.15987151  .00009413  00000-0  63091-3 0  3259
2 27581  53.0535 207.5077 0001943  72.5833  73.6167 15.06375807    14
